#aV2008  6  2  0  0   .00000000      96 DD+AD WGS84 FIT  NGA
## 1482  86400.00000000   900.00000000 54619  .0000000000000
+   31     2  3  4  5  6  7  8  9 10 11 12 13 14 15 16 17 18
+         19 20 21 22 23 24 25 26 27 28 29 30 31 32  0  0  0
+          0  0  0  0  0  0  0  0  0  0  0  0  0  0  0  0  0
+          0  0  0  0  0  0  0  0  0  0  0  0  0  0  0  0  0
+          0  0  0  0  0  0  0  0  0  0  0  0  0  0  0  0  0
++         0  0  0  0  0  0  0  0  0  0  0  0  0  0  0  0  0
++         0  0  0  0  0  0  0  0  0  0  0  0  0  0  0  0  0
++         0  0  0  0  0  0  0  0  0  0  0  0  0  0  0  0  0
++         0  0  0  0  0  0  0  0  0  0  0  0  0  0  0  0  0
++         0  0  0  0  0  0  0  0  0  0  0  0  0  0  0  0  0
%c cc cc ccc ccc cccc cccc cccc cccc ccccc ccccc ccccc ccccc
%c cc cc ccc ccc cccc cccc cccc cccc ccccc ccccc ccccc ccccc
%f  0.0000000  0.000000000  0.00000000000  0.000000000000000
%f  0.0000000  0.000000000  0.00000000000  0.000000000000000
%i    0    0    0    0      0      0      0      0         0
%i    0    0    0    0      0      0      0      0         0
/*      NGA, ST. LOUIS,MO.                                  
/*   EPHEMERIS COMPUTED FROM  3 DAYS OF DATA                
/* CCCCCCCCCCCCCCCCCCCCCCCCCCCCCCCCCCCCCCCCCCCCCCCCCCCCCCCCC
/* CCCCCCCCCCCCCCCCCCCCCCCCCCCCCCCCCCCCCCCCCCCCCCCCCCCCCCCCC
*  2008  6  2  1  0   .00000000                                                 
P  2 -23154.394875  12233.543052  -3221.974183    205.850385                    
V  2   1349.433775  -5187.056097 -31246.478709       .008256                    
P  3  12348.447531 -13510.199006  18872.834081    236.399769                    
V  3   5617.930653  24184.991209  13806.964714       .051992                    
P  4 -23275.681829   3609.272529 -12719.922099    -81.049622                    
V  4  12208.289014 -10472.939044 -25148.440538      -.089084                    
P  5   6088.720369  17610.094239 -19249.926992    786.373028                    
V  5 -22638.421399  -7757.063801 -14317.366923       .085621                    
P  6  14991.801571  -7067.031238  20955.413120    140.261147                    
V  6   2956.760923  26117.874865   6729.762395       .075744                    
P  7  -5504.661560 -14341.546708  21634.129447    -29.540782                    
V  7  23433.021021 -14465.234044  -3690.793771       .080947                    
P  8 -17378.710322  -5100.893268  19507.815578   -155.609639                    
V  8  21182.940311 -12799.292811  15000.508935      -.016298                    
P  9  -9447.335819  19575.588169 -15785.741852    127.171462                    
V  9 -16552.276107   9371.234231  22591.709912       .017116                    
P 10 -17834.009077   5183.185779  18971.156959     -1.919652                    
V 10 -20640.236910 -12809.407652 -15469.830372      -.003743                    
P 11   4590.557363 -21241.531325 -15211.053723     25.087415                    
V 11  16547.599523 -10768.694210  20569.431566      -.004523                    
P 12    571.882820  16534.594578 -20707.180059   -358.883554                    
V 12 -23820.126807 -11572.604076  -9760.498508       .002528                    
P 13  -6458.368317 -23650.236612  10123.756150    257.988451                    
V 13   1603.034745 -12975.702579 -28927.124196       .016456                    
P 14  13715.189506   9331.444822 -20669.885381   -260.163370                    
V 14   -323.495253  26374.034674  11539.024608       .042428                    
P 15  -7740.417454  22031.862400  12665.755491   -120.102537                    
V 15  -3245.042106 -15910.901419  25741.273736      -.058865                    
P 16  21167.214209  -1220.815201  16194.031339    122.897933                    
V 16  17064.860627  11186.120635 -21359.175806      -.014911                    
P 17 -14537.292417  -8989.969368 -20329.553245     38.777039                    
V 17    161.076805 -25886.228899  11149.765702      -.001118                    
P 18  17495.386158  17888.622132   9614.011164   -171.884506                    
V 18 -11580.992084  -3624.589622  27991.584478       .039790                    
P 19   8920.969845 -21991.728053  11819.395930     31.149748                    
V 19   2181.841095  15014.577475  26667.907557       .007900                    
P 20  -2461.983722 -17365.260407 -20072.975563    113.055190                    
V 20  23126.584789  10244.826445 -11728.245114      -.008457                    
P 21  11765.553721  11186.271160  21274.493137     62.544281                    
V 21 -22667.268215  13923.984199   4644.785051      -.011497                    
P 22  23917.162741  11122.372352  -3211.463670    211.362687                    
V 22   2077.015050   4936.401847  31022.633055       .001785                    
P 23    404.686355 -26345.069917  -2091.813030    357.063409                    
V 23   2787.434564   2481.309318 -31998.280162       .020990                    
P 24  -3891.505331  18019.331955  19384.724246     98.558046                    
V 24 -21652.731925  10862.082436 -14296.464768       .031132                    
P 25   1031.834812 -18153.697589  19782.594622   -192.996846                    
V 25  19782.487856 -14102.282115 -14056.257318      -.280089                    
P 26 -10006.335586  18600.855602  15258.495455    265.625932                    
V 26  -1713.365933 -20436.492539  23584.175164       .076666                    
P 27  -8371.404071 -12859.042630  22353.117415    192.586946                    
V 27  21743.722173 -15576.929749   -979.319879       .027037                    
P 28 -23655.283383 -12402.561754   -958.944210    -19.610582                    
V 28   -263.059188  -2959.099701  31570.136205      -.003683                    
P 29   5457.641593  25085.425703   6990.252532    -42.737783                    
V 29  -2480.936529   8769.717343 -30024.343984       .002754                    
P 30  13227.682813  17983.381127 -14807.458788     79.213995                    
V 30 -17395.044359  -5797.308813 -23013.029427       .017202                    
P 31  23281.521306  -5584.985086 -11416.347961    -21.968895                    
V 31 -11251.625059   9791.342409 -27143.909945      -.013693                    
P 32  11955.887284  -9669.780348 -21221.142547    292.749348                    
V 32  23266.203678  15474.040310   6107.880641       .046972                    
EOF
